NORAD_CAT_ID,OBJECT_NAME,OBJECT_TYPE,EPOCH,MEAN_MOTION,ECCENTRICITY,INCLINATION,RA_OF_ASC_NODE,ARG_OF_PERICENTER,MEAN_ANOMALY,BSTAR,MEAN_MOTION_DOT,MEAN_MOTION_DDOT,TLE_LINE0,TLE_LINE1,TLE_LINE2,SEMIMAJOR_AXIS,PERIOD,APOGEE,PERIGEE,DECAYED
53964.0,STARLINK-4633,PAYLOAD,2023-02-21 01:54:52,15.08809285,0.0001234,53.2157,178.9739,113.7352,246.377,-0.00075921,-0.0001234,0.0,0 STARLINK-4633,1 53964U 22125A   23052.07977019 -.00012340  00000-0 -75921-3 0  9990,2 53964  53.2157 178.9739 0001234 113.7352 246.3770 15.08809285 21422,6917.974,95.439,540.693,538.986,0.0
53964.0,STARLINK-4633,PAYLOAD,2023-02-21 14:37:57,15.08825185,0.0001143,53.2156,176.5976,90.2392,269.8731,0.00054099,8.329e-05,0.0,0 STARLINK-4633,1 53964U 22125A   23052.60969856  .00008329  00000-0  54099-3 0  9992,2 53964  53.2156 176.5976 0001143  90.2392 269.8731 15.08825185 21435,6917.926,95.438,540.581,539.0,0.0
53964.0,STARLINK-4633,PAYLOAD,2023-02-21 19:24:07,15.08841659,0.0001195,53.2163,175.7058,90.6463,269.4666,0.0011795,0.00018534,0.0,0 STARLINK-4633,1 53964U 22125A   23052.80841879  .00018534  00000-0  11795-2 0  9992,2 53964  53.2163 175.7058 0001195  90.6463 269.4666 15.08841659 21465,6917.875,95.437,540.567,538.914,0.0
53964.0,STARLINK-4633,PAYLOAD,2023-02-22 01:45:39,15.08860928,0.0001173,53.2168,174.5157,98.3515,261.761,0.002326,0.00036946,0.0,0 STARLINK-4633,1 53964U 22125A   23053.07337818  .00036946  00000-0  23260-2 0  9992,2 53964  53.2168 174.5157 0001173  98.3515 261.7610 15.08860928 21572,6917.816,95.436,540.493,538.87,0.0
53964.0,STARLINK-4633,PAYLOAD,2023-02-22 12:53:20,15.08891695,0.0001201,53.2164,172.4343,95.3774,264.7356,0.0019883,0.00031543,0.0,0 STARLINK-4633,1 53964U 22125A   23053.53704599  .00031543  00000-0  19883-2 0  9991,2 53964  53.2164 172.4343 0001201  95.3774 264.7356 15.08891695 21573,6917.722,95.434,540.418,538.757,0.0
53964.0,STARLINK-4633,PAYLOAD,2023-02-22 19:14:52,15.08910638,0.0001223,53.2161,171.2432,106.3595,253.7532,0.0020199,0.00032068,0.0,0 STARLINK-4633,1 53964U 22125A   23053.80199410  .00032068  00000-0  20199-2 0  9996,2 53964  53.2161 171.2432 0001223 106.3595 253.7532 15.08910638 21612,6917.664,95.433,540.376,538.683,0.0
53964.0,STARLINK-4633,PAYLOAD,2023-02-23 07:57:57,15.08847382,0.0001779,53.2168,168.8634,122.3779,237.7385,0.00064837,0.00010048,0.0,0 STARLINK-4633,1 53964U 22125A   23054.33191781  .00010048  00000-0  64837-3 0  9990,2 53964  53.2168 168.8634 0001779 122.3779 237.7385 15.08847382 21762,6917.858,95.437,540.954,538.492,0.0
53964.0,STARLINK-4633,PAYLOAD,2023-02-23 11:08:44,15.08848494,0.0001422,53.2163,168.2693,119.9994,240.114,0.0012552,0.0001975,0.0,0 STARLINK-4633,1 53964U 22125A   23054.46439828  .00019750  00000-0  12552-2 0  9996,2 53964  53.2163 168.2693 0001422 119.9994 240.1140 15.08848494 21719,6917.854,95.437,540.703,538.736,0.0
53964.0,STARLINK-4633,PAYLOAD,2023-02-23 19:05:39,15.08862808,9.81e-05,53.2167,166.7842,118.1715,241.9377,0.0021878,0.00034724,0.0,0 STARLINK-4633,1 53964U 22125A   23054.79559754  .00034724  00000-0  21878-2 0  9992,2 53964  53.2167 166.7842 0000981 118.1715 241.9377 15.08862808 21764,6917.811,95.436,540.354,538.997,0.0
53964.0,STARLINK-4633,PAYLOAD,2023-02-23 23:51:49,15.08826447,0.0001866,53.2166,165.8918,85.6368,274.4837,0.0024015,0.00038125,0.0,0 STARLINK-4633,1 53964U 22125A   23054.99432498  .00038125  00000-0  24015-2 0  9994,2 53964  53.2166 165.8918 0001866  85.6368 274.4837 15.08826447 21864,6917.922,95.438,541.078,538.496,0.0
53964.0,STARLINK-4633,PAYLOAD,2023-02-24 12:34:54,15.08845271,0.0001066,53.2168,163.5143,105.3773,254.7337,0.0010017,0.00015692,0.0,0 STARLINK-4633,1 53964U 22125A   23055.52424102  .00015692  00000-0  10017-2 0  9998,2 53964  53.2168 163.5143 0001066 105.3773 254.7337 15.08845271 21876,6917.864,95.437,540.467,538.992,0.0
53964.0,STARLINK-4633,PAYLOAD,2023-02-24 17:21:03,15.08855216,8.81e-05,53.2172,162.6237,97.9755,262.1337,0.0010736,0.00016847,0.0,0 STARLINK-4633,1 53964U 22125A   23055.72295896  .00016847  00000-0  10736-2 0  9997,2 53964  53.2172 162.6237 0000881  97.9755 262.1337 15.08855216 21979,6917.834,95.437,540.308,539.089,0.0
53964.0,STARLINK-4633,PAYLOAD,2023-02-24 23:42:36,15.08831808,9.67e-05,53.217,161.4327,110.3755,249.7341,0.00013731,1.898e-05,0.0,0 STARLINK-4633,1 53964U 22125A   23055.98792371  .00001898  00000-0  13731-3 0  9994,2 53964  53.2170 161.4327 0000967 110.3755 249.7341 15.08831808 22012,6917.905,95.438,540.439,539.101,0.0
53964.0,STARLINK-4633,PAYLOAD,2023-02-25 12:25:42,15.08825462,0.0001094,53.2171,159.0535,92.7908,267.321,0.00076007,0.00011824,0.0,0 STARLINK-4633,1 53964U 22125A   23056.51785103  .00011824  00000-0  76007-3 0  9994,2 53964  53.2171 159.0535 0001094  92.7908 267.3210 15.08825462 22023,6917.925,95.438,540.547,539.033,0.0
53964.0,STARLINK-4633,PAYLOAD,2023-02-25 15:36:28,15.08837156,0.0001239,53.2175,158.4591,97.3895,262.7238,0.00061414,9.499e-05,0.0,0 STARLINK-4633,1 53964U 22125A   23056.65033045  .00009499  00000-0  61414-3 0  9991,2 53964  53.2175 158.4591 0001239  97.3895 262.7238 15.08837156 22043,6917.889,95.438,540.611,538.897,0.0
53964.0,STARLINK-4633,PAYLOAD,2023-02-26 10:41:05,15.08867862,7.04e-05,53.2157,154.8905,103.3452,256.7619,0.0013269,0.00020909,0.0,0 STARLINK-4633,1 53964U 22125A   23057.44520390  .00020909  00000-0  13269-2 0  9996,2 53964  53.2157 154.8905 0000704 103.3452 256.7619 15.08867862 22161,6917.795,95.436,540.147,539.173,0.0
53964.0,STARLINK-4633,PAYLOAD,2023-02-26 18:38:00,15.08892518,9.21e-05,53.2156,153.4049,93.6185,266.4913,0.0017373,0.00027509,0.0,0 STARLINK-4633,1 53964U 22125A   23057.77639447  .00027509  00000-0  17373-2 0  9999,2 53964  53.2156 153.4049 0000921  93.6185 266.4913 15.08892518 22283,6917.72,95.434,540.222,538.948,0.0
53964.0,STARLINK-4633,PAYLOAD,2023-02-26 23:24:10,15.0884298,0.0001425,53.2158,152.5127,72.0809,288.0338,-0.00013212,-2.39e-05,0.0,0 STARLINK-4633,1 53964U 22125A   23057.97512324 -.00002390  00000-0 -13212-3 0  9997,2 53964  53.2158 152.5127 0001425  72.0809 288.0338 15.08842980 22319,6917.871,95.437,540.722,538.75,0.0
53964.0,STARLINK-4633,PAYLOAD,2023-02-27 15:18:02,15.08875949,0.0002383,53.2152,149.5387,71.7741,288.351,0.0041214,0.00065985,0.0,0 STARLINK-4633,1 53964U 22125A   23058.63752746  .00065985  00000-0  41214-2 0  9994,2 53964  53.2152 149.5387 0002383  71.7741 288.3510 15.08875949 22419,6917.771,95.435,541.284,537.987,0.0
53964.0,STARLINK-4633,PAYLOAD,2023-02-27 18:28:47,15.08869344,9.96e-05,53.2155,148.9395,67.4664,292.6434,0.0028956,0.00046134,0.0,0 STARLINK-4633,1 53964U 22125A   23058.76999996  .00046134  00000-0  28956-2 0  9991,2 53964  53.2155 148.9395 0000996  67.4664 292.6434 15.08869344 22367,6917.791,95.436,540.345,538.967,0.0
53964.0,STARLINK-4633,PAYLOAD,2023-02-27 23:14:56,15.08857373,7.48e-05,53.2158,148.0507,275.7571,84.3336,0.00064624,0.00010017,0.0,0 STARLINK-4633,1 53964U 22125A   23058.96871478  .00010017  00000-0  64624-3 0  9991,2 53964  53.2158 148.0507 0000748 275.7571  84.3336 15.08857373 22469,6917.827,95.436,540.21,539.175,0.0
53964.0,STARLINK-4633,PAYLOAD,2023-02-28 11:58:01,15.08889744,0.0001012,53.2158,145.6723,50.1493,309.9588,0.0028464,0.00045366,0.0,0 STARLINK-4633,1 53964U 22125A   23059.49863349  .00045366  00000-0  28464-2 0  9994,2 53964  53.2158 145.6723 0001012  50.1493 309.9588 15.08889744 22546,6917.728,95.434,540.293,538.893,0.0
53964.0,STARLINK-4633,PAYLOAD,2023-02-28 15:08:47,15.08892648,0.0001139,53.2155,145.078,45.8874,314.2212,0.0025944,0.00041304,0.0,0 STARLINK-4633,1 53964U 22125A   23059.63111015  .00041304  00000-0  25944-2 0  9994,2 53964  53.2155 145.0780 0001139  45.8874 314.2212 15.08892648 22498,6917.719,95.434,540.372,538.797,0.0
53964.0,STARLINK-4633,PAYLOAD,2023-02-28 23:05:43,15.0884109,5.72e-05,53.2164,143.5904,59.3577,300.7472,-0.00045078,-7.455e-05,0.0,0 STARLINK-4633,1 53964U 22125A   23059.96231293 -.00007455  00000-0 -45078-3 0  9993,2 53964  53.2164 143.5904 0000572  59.3577 300.7472 15.08841090 22616,6917.877,95.437,540.138,539.346,0.0
53964.0,STARLINK-4633,PAYLOAD,2023-03-01 10:13:27,15.08798214,0.0001093,53.2152,141.5061,107.9981,252.113,0.00075982,0.00011812,0.0,0 STARLINK-4633,1 53964U 22125A   23060.42601340  .00011812  00000-0  75982-3 0  9997,2 53964  53.2152 141.5061 0001093 107.9981 252.1130 15.08798214 22680,6918.008,95.44,540.629,539.117,0.0
53964.0,STARLINK-4633,PAYLOAD,2023-03-01 14:59:37,15.0879538,0.0001056,53.2165,140.6165,90.0583,270.053,0.0018147,0.00028676,0.0,0 STARLINK-4633,1 53964U 22125A   23060.62474292  .00028676  00000-0  18147-2 0  9998,2 53964  53.2165 140.6165 0001056  90.0583 270.0530 15.08795380 22648,6918.017,95.44,540.612,539.151,0.0
53964.0,STARLINK-4633,PAYLOAD,2023-03-02 16:25:48,15.08876376,0.0001169,53.2167,135.8599,78.3775,281.7348,0.0024301,0.00038638,0.0,0 STARLINK-4633,1 53964U 22125A   23061.68458585  .00038638  00000-0  24301-2 0  9990,2 53964  53.2167 135.8599 0001169  78.3775 281.7348 15.08876376 22870,6917.769,95.435,540.443,538.826,0.0
53964.0,STARLINK-4633,PAYLOAD,2023-03-03 05:08:52,15.08885974,0.0001135,53.2169,133.4814,84.6415,275.4706,0.0021948,0.00034859,0.0,0 STARLINK-4633,1 53964U 22125A   23062.21449879  .00034859  00000-0  21948-2 0  9991,2 53964  53.2169 133.4814 0001135  84.6415 275.4706 15.08885974 22951,6917.74,95.435,540.39,538.82,0.0
53964.0,STARLINK-4633,PAYLOAD,2023-03-03 11:30:24,15.08902982,0.0001129,53.217,132.2922,89.3707,270.7414,0.0029955,0.00047791,0.0,0 STARLINK-4633,1 53964U 22125A   23062.47945132  .00047791  00000-0  29955-2 0  9997,2 53964  53.2170 132.2922 0001129  89.3707 270.7414 15.08902982 22929,6917.688,95.434,540.334,538.772,0.0
53964.0,STARLINK-4633,PAYLOAD,2023-03-03 21:02:42,15.08846041,0.0001236,53.2173,130.5078,127.208,232.9026,-0.00049615,-8.177e-05,0.0,0 STARLINK-4633,1 53964U 22125A   23062.87688577 -.00008177  00000-0 -49615-3 0  9991,2 53964  53.2173 130.5078 0001236 127.2080 232.9026 15.08846041 22988,6917.862,95.437,540.582,538.872,0.0
